[
    {
        "Altitude(m)": 612502.1962019913,
        "Argument of Periapsis(deg)": 0.0,
        "Eccentricity": 0.0,
        "Inclination(deg)": 60.0,
        "Latitude(deg)": -28.135978302230072,
        "Longitude(deg)": 52.148286698199,
        "Mean Anomaly(deg)": -32.72730000000006,
        "RAAN(deg)": 170.00000000000003,
        "Satellite Name": "Test1 768",
        "Satellite Number": 768,
        "Semi-Major Axis(m)": 6980739.136638005,
        "Time(s)": 0
    },
    {
        "Altitude(m)": 612308.6439383135,
        "Argument of Periapsis(deg)": 0.00010418945913296404,
        "Eccentricity": 0.0,
        "Inclination(deg)": 60.0,
        "Latitude(deg)": -27.623033172922145,
        "Longitude(deg)": 52.501760063719814,
        "Mean Anomaly(deg)": -32.10719385453821,
        "RAAN(deg)": 169.99957995086027,
        "Satellite Name": "Test1 768",
        "Satellite Number": 768,
        "Semi-Major Axis(m)": 6980739.136638005,
        "Time(s)": 10
    }
]